[{"OBJECT_NAME":"STARLINK-31544","OBJECT_ID":"2024-064B","EPOCH":"2026-03-09T01:04:42.358080","MEAN_MOTION":15.27581907,"ECCENTRICITY":0.00012921,"INCLINATION":43.0027,"RA_OF_ASC_NODE":60.1166,"ARG_OF_PERICENTER":271.7912,"MEAN_ANOMALY":88.2792,"EPHEMERIS_TYPE":0,"CLASSIFICATION_TYPE":"U","NORAD_CAT_ID":59399,"ELEMENT_SET_NO":999,"REV_AT_EPOCH":10912,"BSTAR":2.0080436e-5,"MEAN_MOTION_DOT":2.91e-6,"MEAN_MOTION_DDOT":0},{"OBJECT_NAME":"CZ-6A DEB","OBJECT_ID":"2024-140JQ","EPOCH":"2026-03-09T16:05:49.477056","MEAN_MOTION":15.15394204,"ECCENTRICITY":0.00800164,"INCLINATION":89.0638,"RA_OF_ASC_NODE":284.0631,"ARG_OF_PERICENTER":105.771,"MEAN_ANOMALY":255.2376,"EPHEMERIS_TYPE":0,"CLASSIFICATION_TYPE":"U","NORAD_CAT_ID":60861,"ELEMENT_SET_NO":999,"REV_AT_EPOCH":8511,"BSTAR":0.0025246282,"MEAN_MOTION_DOT":0.00051962,"MEAN_MOTION_DDOT":0}]
